CTC1_L_00061001-01
1 10000U 22944DF  26075.70030093  .00000000  00000+0  00000-0 0  9993
2 10000  60.0000   0.0000 0000000   0.0000   0.0000 14.98995063    14
CTC1_L_00061001-02
1 10001U 24901RL  26075.70030093  .00000000  00000+0  00000-0 0  9999
2 10001  60.0000   0.0000 0000000   0.0000  90.0000 14.98995063    14
CTC1_L_00061001-03
1 10002U 22665BL  26075.70030093  .00000000  00000+0  00000-0 0  9995
2 10002  60.0000   0.0000 0000000   0.0000 180.0000 14.98995063    15
CTC1_L_00061001-04
1 10003U 23109OQ  26075.70030093  .00000000  00000+0  00000-0 0  9990
2 10003  60.0000   0.0000 0000000   0.0000 270.0000 14.98995063    16
CTC1_L_00061002-01
1 10004U 25225SO  26075.70030093  .00000000  00000+0  00000-0 0  9992
2 10004  60.0000  12.0000 0000000   0.0000  12.0000 14.98995063    14
CTC1_L_00061002-02
1 10005U 23713DN  26075.70030093  .00000000  00000+0  00000-0 0  9993
2 10005  60.0000  12.0000 0000000   0.0000 102.0000 14.98995063    15
CTC1_L_00061002-03
1 10006U 23825GQ  26075.70030093  .00000000  00000+0  00000-0 0  9998
2 10006  60.0000  12.0000 0000000   0.0000 192.0000 14.98995063    15
CTC1_L_00061002-04
1 10007U 24451AZ  26075.70030093  .00000000  00000+0  00000-0 0  9995
2 10007  60.0000  12.0000 0000000   0.0000 282.0000 14.98995063    16
CTC1_L_00061003-01
1 10008U 25460SB  26075.70030093  .00000000  00000+0  00000-0 0  9997
2 10008  60.0000  24.0000 0000000   0.0000  24.0000 14.98995063    14
CTC1_L_00061003-02
1 10009U 24659OD  26075.70030093  .00000000  00000+0  00000-0 0  9997
2 10009  60.0000  24.0000 0000000   0.0000 114.0000 14.98995063    15
CTC1_L_00061003-03
1 10010U 24324XF  26075.70030093  .00000000  00000+0  00000-0 0  9998
2 10010  60.0000  24.0000 0000000   0.0000 204.0000 14.98995063    17
CTC1_L_00061003-04
1 10011U 25409FT  26075.70030093  .00000000  00000+0  00000-0 0  9994
2 10011  60.0000  24.0000 0000000   0.0000 294.0000 14.98995063    17
CTC1_L_00061004-01
1 10012U 23351EU  26075.70030093  .00000000  00000+0  00000-0 0  9999
2 10012  60.0000  36.0000 0000000   0.0000  36.0000 14.98995063    15
CTC1_L_00061004-02
1 10013U 26127X   26075.70030093  .00000000  00000+0  00000-0 0  9994
2 10013  60.0000  36.0000 0000000   0.0000 126.0000 14.98995063    16
CTC1_L_00061004-03
1 10014U 25121O   26075.70030093  .00000000  00000+0  00000-0 0  9998
2 10014  60.0000  36.0000 0000000   0.0000 216.0000 14.98995063    17
CTC1_L_00061004-04
1 10015U 24924HO  26075.70030093  .00000000  00000+0  00000-0 0  9999
2 10015  60.0000  36.0000 0000000   0.0000 306.0000 14.98995063    18
CTC1_L_00061005-01
1 10016U 25565VY  26075.70030093  .00000000  00000+0  00000-0 0  9992
2 10016  60.0000  48.0000 0000000   0.0000  48.0000 14.98995063    15
CTC1_L_00061005-02
1 10017U 23119UY  26075.70030093  .00000000  00000+0  00000-0 0  9996
2 10017  60.0000  48.0000 0000000   0.0000 138.0000 14.98995063    16
CTC1_L_00061005-03
1 10018U 23708OV  26075.70030093  .00000000  00000+0  00000-0 0  9991
2 10018  60.0000  48.0000 0000000   0.0000 228.0000 14.98995063    17
CTC1_L_00061005-04
1 10019U 22168YA  26075.70030093  .00000000  00000+0  00000-0 0  9991
2 10019  60.0000  48.0000 0000000   0.0000 318.0000 14.98995063    18
CTC1_L_00061006-01
1 10020U 25973XC  26075.70030093  .00000000  00000+0  00000-0 0  9990
2 10020  60.0000  60.0000 0000000   0.0000  60.0000 14.98995063    18
CTC1_L_00061006-02
1 10021U 24151VP  26075.70030093  .00000000  00000+0  00000-0 0  9998
2 10021  60.0000  60.0000 0000000   0.0000 150.0000 14.98995063    19
CTC1_L_00061006-03
1 10022U 24475WF  26075.70030093  .00000000  00000+0  00000-0 0  9998
2 10022  60.0000  60.0000 0000000   0.0000 240.0000 14.98995063    10
CTC1_L_00061006-04
1 10023U 26584GX  26075.70030093  .00000000  00000+0  00000-0 0  9992
2 10023  60.0000  60.0000 0000000   0.0000 330.0000 14.98995063    11
CTC1_L_00061007-01
1 10024U 24498MF  26075.70030093  .00000000  00000+0  00000-0 0  9995
2 10024  60.0000  72.0000 0000000   0.0000  72.0000 14.98995063    18
CTC1_L_00061007-02
1 10025U 25276GD  26075.70030093  .00000000  00000+0  00000-0 0  9991
2 10025  60.0000  72.0000 0000000   0.0000 162.0000 14.98995063    19
CTC1_L_00061007-03
1 10026U 22834IG  26075.70030093  .00000000  00000+0  00000-0 0  9999
2 10026  60.0000  72.0000 0000000   0.0000 252.0000 14.98995063    10
CTC1_L_00061007-04
1 10027U 24041FX  26075.70030093  .00000000  00000+0  00000-0 0  9992
2 10027  60.0000  72.0000 0000000   0.0000 342.0000 14.98995063    11
CTC1_L_00061008-01
1 10028U 24006BV  26075.70030093  .00000000  00000+0  00000-0 0  9994
2 10028  60.0000  84.0000 0000000   0.0000  84.0000 14.98995063    18
CTC1_L_00061008-02
1 10029U 26308OI  26075.70030093  .00000000  00000+0  00000-0 0  9992
2 10029  60.0000  84.0000 0000000   0.0000 174.0000 14.98995063    19
CTC1_L_00061008-03
1 10030U 25936FT  26075.70030093  .00000000  00000+0  00000-0 0  9990
2 10030  60.0000  84.0000 0000000   0.0000 264.0000 14.98995063    11
CTC1_L_00061008-04
1 10031U 24924IU  26075.70030093  .00000000  00000+0  00000-0 0  9997
2 10031  60.0000  84.0000 0000000   0.0000 354.0000 14.98995063    12
CTC1_L_00061009-01
1 10032U 23411UY  26075.70030093  .00000000  00000+0  00000-0 0  9998
2 10032  60.0000  96.0000 0000000   0.0000  96.0000 14.98995063    19
CTC1_L_00061009-02
1 10033U 24448DO  26075.70030093  .00000000  00000+0  00000-0 0  9990
2 10033  60.0000  96.0000 0000000   0.0000 186.0000 14.98995063    10
CTC1_L_00061009-03
1 10034U 26861FN  26075.70030093  .00000000  00000+0  00000-0 0  9992
2 10034  60.0000  96.0000 0000000   0.0000 276.0000 14.98995063    11
CTC1_L_00061009-04
1 10035U 25012LD  26075.70030093  .00000000  00000+0  00000-0 0  9990
2 10035  60.0000  96.0000 0000000   0.0000   6.0000 14.98995063    13
CTC1_L_00061010-01
1 10036U 26652JE  26075.70030093  .00000000  00000+0  00000-0 0  9992
2 10036  60.0000 108.0000 0000000   0.0000 108.0000 14.98995063    11
CTC1_L_00061010-02
1 10037U 25364KR  26075.70030093  .00000000  00000+0  00000-0 0  9992
2 10037  60.0000 108.0000 0000000   0.0000 198.0000 14.98995063    11
CTC1_L_00061010-03
1 10038U 23940AJ  26075.70030093  .00000000  00000+0  00000-0 0  9991
2 10038  60.0000 108.0000 0000000   0.0000 288.0000 14.98995063    12
CTC1_L_00061010-04
1 10039U 23371HU  26075.70030093  .00000000  00000+0  00000-0 0  9990
2 10039  60.0000 108.0000 0000000   0.0000  18.0000 14.98995063    14
CTC1_L_00061011-01
1 10040U 24250PE  26075.70030093  .00000000  00000+0  00000-0 0  9999
2 10040  60.0000 120.0000 0000000   0.0000 120.0000 14.98995063    14
CTC1_L_00061011-02
1 10041U 23993S   26075.70030093  .00000000  00000+0  00000-0 0  9993
2 10041  60.0000 120.0000 0000000   0.0000 210.0000 14.98995063    15
CTC1_L_00061011-03
1 10042U 26353BH  26075.70030093  .00000000  00000+0  00000-0 0  9997
2 10042  60.0000 120.0000 0000000   0.0000 300.0000 14.98995063    16
CTC1_L_00061011-04
1 10043U 23780IZ  26075.70030093  .00000000  00000+0  00000-0 0  9999
2 10043  60.0000 120.0000 0000000   0.0000  30.0000 14.98995063    17
CTC1_L_00061012-01
1 10044U 22458IQ  26075.70030093  .00000000  00000+0  00000-0 0  9991
2 10044  60.0000 132.0000 0000000   0.0000 132.0000 14.98995063    14
CTC1_L_00061012-02
1 10045U 24308LH  26075.70030093  .00000000  00000+0  00000-0 0  9998
2 10045  60.0000 132.0000 0000000   0.0000 222.0000 14.98995063    15
CTC1_L_00061012-03
1 10046U 23789KZ  26075.70030093  .00000000  00000+0  00000-0 0  9991
2 10046  60.0000 132.0000 0000000   0.0000 312.0000 14.98995063    16
CTC1_L_00061012-04
1 10047U 25959PB  26075.70030093  .00000000  00000+0  00000-0 0  9993
2 10047  60.0000 132.0000 0000000   0.0000  42.0000 14.98995063    17
CTC1_L_00061013-01
1 10048U 23182MA  26075.70030093  .00000000  00000+0  00000-0 0  9990
2 10048  60.0000 144.0000 0000000   0.0000 144.0000 14.98995063    14
CTC1_L_00061013-02
1 10049U 25490RY  26075.70030093  .00000000  00000+0  00000-0 0  9995
2 10049  60.0000 144.0000 0000000   0.0000 234.0000 14.98995063    15
CTC1_L_00061013-03
1 10050U 24607FR  26075.70030093  .00000000  00000+0  00000-0 0  9996
2 10050  60.0000 144.0000 0000000   0.0000 324.0000 14.98995063    17
CTC1_L_00061013-04
1 10051U 24892PK  26075.70030093  .00000000  00000+0  00000-0 0  9993
2 10051  60.0000 144.0000 0000000   0.0000  54.0000 14.98995063    18
CTC1_L_00061014-01
1 10052U 24713CP  26075.70030093  .00000000  00000+0  00000-0 0  9996
2 10052  60.0000 156.0000 0000000   0.0000 156.0000 14.98995063    15
CTC1_L_00061014-02
1 10053U 26388WS  26075.70030093  .00000000  00000+0  00000-0 0  9997
2 10053  60.0000 156.0000 0000000   0.0000 246.0000 14.98995063    16
CTC1_L_00061014-03
1 10054U 25972FV  26075.70030093  .00000000  00000+0  00000-0 0  9996
2 10054  60.0000 156.0000 0000000   0.0000 336.0000 14.98995063    17
CTC1_L_00061014-04
1 10055U 22531YD  26075.70030093  .00000000  00000+0  00000-0 0  9995
2 10055  60.0000 156.0000 0000000   0.0000  66.0000 14.98995063    18
CTC1_L_00061015-01
1 10056U 23129MK  26075.70030093  .00000000  00000+0  00000-0 0  9990
2 10056  60.0000 168.0000 0000000   0.0000 168.0000 14.98995063    15
CTC1_L_00061015-02
1 10057U 23881MJ  26075.70030093  .00000000  00000+0  00000-0 0  9996
2 10057  60.0000 168.0000 0000000   0.0000 258.0000 14.98995063    16
CTC1_L_00061015-03
1 10058U 25585EJ  26075.70030093  .00000000  00000+0  00000-0 0  9990
2 10058  60.0000 168.0000 0000000   0.0000 348.0000 14.98995063    17
CTC1_L_00061015-04
1 10059U 25320NG  26075.70030093  .00000000  00000+0  00000-0 0  9998
2 10059  60.0000 168.0000 0000000   0.0000  78.0000 14.98995063    18
CTC1_L_00061016-01
1 10060U 24849ZL  26075.70030093  .00000000  00000+0  00000-0 0  9995
2 10060  60.0000 180.0000 0000000   0.0000 180.0000 14.98995063    18
CTC1_L_00061016-02
1 10061U 26313YL  26075.70030093  .00000000  00000+0  00000-0 0  9994
2 10061  60.0000 180.0000 0000000   0.0000 270.0000 14.98995063    19
